CubeSX-Sirius-HSE
1 47951U 21022V   25084.85065912  .00161831  00000-0  18017-2 0  9997
2 47951  97.4269 353.7432 0007177 171.0107 189.1281 15.62291591221906
CubeSX-HSE
1 47952U 21022W   25084.88070678  .00161474  00000-0  17570-2 0  9992
2 47952  97.4271 353.9886 0007513 165.5347 194.6128 15.62881739221925
GRBAlpha
1 47959U 21022AD  25084.84791437  .00160863  00000-0  17704-2 0  9998
2 47959  97.4258 354.0943 0007155 170.0917 190.0484 15.62592971220740
Orbicraft-Zorkiy
1 47960U 21022AE  25084.60822308  .00535343  00000-0  21896-2 0  9992
2 47960  97.4205 357.8003 0008657 147.7483 212.4317 15.84720679221623
TUBIN
1 48900U 21059X   25084.87793404  .00066924  00000-0  10941-2 0  9993
2 48900  97.6698 248.4207 0004196 170.4115 189.7218 15.52304658208267
LEDSAT
1 49069U 21073D   25084.13590776  .00091189  00000-0  16283-2 0  9998
2 49069  97.3959 163.0793 0010382 357.2984   2.8210 15.49667469199552
CUTE
1 49263U 21088D   25083.94978002  .00029339  00000-0  65759-3 0  9991
2 49263  97.4573 158.1527 0010038 156.3882 203.7829 15.43331777192593
TeikyoSat 4
1 49396U 21102B   25084.01528061  .00005293  00000-0  35541-3 0  9999
2 49396  97.4206 125.1884 0013620  42.5407 317.6873 15.07141034185010
Z-Sat
1 49399U 21102E   25084.87753262  .00010570  00000-0  59191-3 0  9990
2 49399  97.3909 128.6695 0018400  11.8425 348.3236 15.13459864185520
KOSEN 1
1 49402U 21102H   25084.88146743  .00016169  00000-0  77690-3 0  9990
2 49402  97.3820 131.5432 0015612 349.2829  10.8071 15.18800683185798
HO-113
1 50466U 21131B   25084.85397262  .00001988  00000-0  63634-3 0  9991
2 50466  98.5087 174.5944 0004137  20.3326 339.8026 14.40663338170541
IRIS-A
1 51044U 22002BN  25084.48413315  .00182410  00000-0  16374-2 0  9997
2 51044  97.3343 160.9027 0002344 138.9088 221.2350 15.67703495177850
Foresail-1
1 52766U 22057AL  25084.79260875  .00152123  00000-0  14583-2 0  9992
2 52766  97.6012 229.1175 0006169 216.6887 143.3951 15.66141259157931
SNUGLITE 2
1 52899U 22065F   25084.85151174  .00004071  00000-0  80482-3 0  9996
2 52899  98.1545 227.6267 0007250 359.3838   0.7354 14.62894197145417
IO-117
1 53106U 22080B   25051.21822557 -.00000003  00000-0  00000 0 0  9995
2 53106  70.1434 106.3440 0008542  48.0089 312.1297  6.42557744 61200
UmKA 1 (RS40S)
1 57172U 23091G   25084.83993798  .00014227  00000-0  78343-3 0  9996
2 57172  97.5684 140.6416 0013947 231.8677 128.1298 15.14055031 96015
CubeBel-2 (EU11S)
1 57175U 23091K   25084.85165381  .00020426  00000-0  10262-2 0  9993
2 57175  97.5683 141.3820 0011851 240.5208 119.4843 15.17242755 96061
VERONIKA
1 58261U 23174F   25084.80907536  .00114878  00000-0  19016-2 0  9994
2 58261  97.4198 167.5248 0006116 303.1706  56.8959 15.51760092 76864
KAFASAT
1 58317U 23174BP  25084.84161704  .01119274  60255-3  26968-2 0  9990
2 58317  97.3998 172.4195 0010781 268.7787  91.2254 15.96450453 77214
ENSO
1 58470U 23185J   25084.85426687  .00073604  00000-0  14694-2 0  9994
2 58470  97.3816 158.0252 0006683 354.5691   5.5485 15.46555200 73290
EIRSAT-1
1 58472U 23185L   25084.88494025  .00107922  00000-0  17605-2 0  9996
2 58472  97.3798 159.0092 0005463 349.4981  10.6157 15.52200486 73365
SONATE-2
1 59112U 24043Q   25083.59800626  .00037125  00000-0  11917-2 0  9994
2 59112  97.5007 213.4709 0011476  31.3939 328.7985 15.32151371 58533
MO-122
1 60209U 24125G   25084.08434262  .00039211  00000-0  12393-2 0  9995
2 60209  97.2903 296.6878 0021322  54.5357 305.7871 15.32473924 40223
GRBBeta
1 60237U 24128C   25084.45417193  .00012690  00000-0  96571-3 0  9997
2 60237  61.9943 344.8113 0044664  41.0009 319.4425 15.01649424 38762
Curium One
1 60242U 24128H   25084.13599218  .00022365  00000-0  16092-2 0  9996
2 60242  61.9843 345.2070 0044625  36.4684 323.9432 15.03435688 38730
ROBUSTA-3A
1 60243U 24128J   25084.44969802  .00020556  00000-0  14972-2 0  9996
2 60243  61.9910 344.7020 0042861  34.2409 326.1432 15.03080602 38777
CatSat
1 60246U 24125J   25084.86485763  .00018960  00000-0  66784-3 0  9996
2 60246  97.2688 297.4598 0044222   5.9862 354.1897 15.28392986 38414
HYPERVIEW-1G (RS66S)
1 61772U 24199AP  25084.86257819  .00038506  00000-0  12633-2 0  9992
2 61772  97.3670 314.0258 0016463 103.1934 257.1145 15.31371795 65357
AO-123
1 61781U 24199AY  25084.86386960  .00015176  00000-0  57441-3 0  9997
2 61781  97.3677 313.5839 0018009 104.8510 255.4726 15.26871422 65328
ZIMSAT 2
1 61783U 24199BA  25084.84921843  .00059089  00000-0  17776-2 0  9999
2 61783  97.3662 314.1878 0017237 102.2065 258.1110 15.34020970 68517
POEM 4 (BGS ARPIT)
1 62461U 24253C   25083.89923670  .00728618  28091-3  94647-3 0  9995
2 62461  55.2130 211.3276 0001990 326.2470 134.6405 16.06561732 13321
HADES-R (SO-124)
1 62690U 25009CK  25084.48396689  .00063069  00000-0  27288-2 0  9994
2 62690  97.4150 165.9285 0001537 351.3972   8.7237 15.22190106 10547
HYDRA-T
1 62692U 25009CM  25084.08484282  .00072091  00000-0  31062-2 0  9999
2 62692  97.4142 165.5443 0001349 341.1596  18.9591 15.22285809 10486
